1 25481U 98053G   19282.18815951  .00000108  00000-0  90241-4 0  9994
2 25481  45.0083 338.6005 0001700 217.5069 142.5659 14.32834806 99408
1 25481U 98053G   19282.60650581 +.00000101 +00000-0 +87793-4 0  9998
2 25481 045.0082 336.6341 0001713 219.0680 141.0042 14.32835026099469
1 25481U 98053G   19283.37347368  .00000092  00000-0  84604-4 0  9996
2 25481  45.0082 333.0284 0001763 222.5448 137.5262 14.32835431 99578
1 25481U 98053G   19283.58264670 +.00000098 +00000-0 +86721-4 0  9991
2 25481 045.0081 332.0452 0001765 223.1090 136.9618 14.32835601099606
